[{"OBJECT_NAME":"BEIJING 1","OBJECT_ID":"2005-043A","EPOCH":"2026-04-26T20:58:18.458400","MEAN_MOTION":14.63501328,"ECCENTRICITY":0.0015922,"INCLINATION":98.2822,"RA_OF_ASC_NODE":249.8234,"ARG_OF_PERICENTER":82.7544,"MEAN_ANOMALY":277.5467,"EPHEMERIS_TYPE":0,"CLASSIFICATION_TYPE":"U","NORAD_CAT_ID":28890,"ELEMENT_SET_NO":999,"REV_AT_EPOCH":9314,"BSTAR":0.00010842,"MEAN_MOTION_DOT":5.14e-6,"MEAN_MOTION_DDOT":0},{"OBJECT_NAME":"HUANJING 1A (HJ-1A)","OBJECT_ID":"2008-041A","EPOCH":"2026-04-26T20:26:41.123040","MEAN_MOTION":14.83866954,"ECCENTRICITY":0.0017889,"INCLINATION":97.667,"RA_OF_ASC_NODE":104.6862,"ARG_OF_PERICENTER":310.915,"MEAN_ANOMALY":49.0515,"EPHEMERIS_TYPE":0,"CLASSIFICATION_TYPE":"U","NORAD_CAT_ID":33320,"ELEMENT_SET_NO":999,"REV_AT_EPOCH":95079,"BSTAR":0.0001796,"MEAN_MOTION_DOT":1.442e-5,"MEAN_MOTION_DDOT":0},{"OBJECT_NAME":"HUANJING 1B (HJ-1B)","OBJECT_ID":"2008-041B","EPOCH":"2026-04-26T20:46:41.408256","MEAN_MOTION":14.83222481,"ECCENTRICITY":0.0036337,"INCLINATION":97.6513,"RA_OF_ASC_NODE":108.0241,"ARG_OF_PERICENTER":354.5544,"MEAN_ANOMALY":5.527,"EPHEMERIS_TYPE":0,"CLASSIFICATION_TYPE":"U","NORAD_CAT_ID":33321,"ELEMENT_SET_NO":999,"REV_AT_EPOCH":95080,"BSTAR":0.00016817,"MEAN_MOTION_DOT":1.337e-5,"MEAN_MOTION_DDOT":0},{"OBJECT_NAME":"YAOGAN-4","OBJECT_ID":"2008-061A","EPOCH":"2026-04-26T19:49:24.729888","MEAN_MOTION":14.83101326,"ECCENTRICITY":0.001302,"INCLINATION":97.9288,"RA_OF_ASC_NODE":50.7256,"ARG_OF_PERICENTER":235.0658,"MEAN_ANOMALY":124.9333,"EPHEMERIS_TYPE":0,"CLASSIFICATION_TYPE":"U","NORAD_CAT_ID":33446,"ELEMENT_SET_NO":999,"REV_AT_EPOCH":93805,"BSTAR":0.00012179,"MEAN_MOTION_DOT":9.39e-6,"MEAN_MOTION_DDOT":0},{"OBJECT_NAME":"DEIMOS-1","OBJECT_ID":"2009-041A","EPOCH":"2026-04-26T18:32:26.897856","MEAN_MOTION":14.75181674,"ECCENTRICITY":0.0001982,"INCLINATION":97.7344,"RA_OF_ASC_NODE":276.2464,"ARG_OF_PERICENTER":45.6303,"MEAN_ANOMALY":314.5068,"EPHEMERIS_TYPE":0,"CLASSIFICATION_TYPE":"U","NORAD_CAT_ID":35681,"ELEMENT_SET_NO":999,"REV_AT_EPOCH":89930,"BSTAR":9.0622e-5,"MEAN_MOTION_DOT":5.65e-6,"MEAN_MOTION_DDOT":0},{"OBJECT_NAME":"UK-DMC 2","OBJECT_ID":"2009-041C","EPOCH":"2026-04-26T20:08:22.136640","MEAN_MOTION":14.75946133,"ECCENTRICITY":0.0001733,"INCLINATION":97.8748,"RA_OF_ASC_NODE":253.0861,"ARG_OF_PERICENTER":88.0602,"MEAN_ANOMALY":272.0806,"EPHEMERIS_TYPE":0,"CLASSIFICATION_TYPE":"U","NORAD_CAT_ID":35683,"ELEMENT_SET_NO":999,"REV_AT_EPOCH":89899,"BSTAR":0.00013804,"MEAN_MOTION_DOT":9.0e-6,"MEAN_MOTION_DDOT":0},{"OBJECT_NAME":"DMC3-FM1","OBJECT_ID":"2015-032A","EPOCH":"2026-04-26T21:14:29.585760","MEAN_MOTION":14.85678202,"ECCENTRICITY":0.0004443,"INCLINATION":97.6538,"RA_OF_ASC_NODE":344.0541,"ARG_OF_PERICENTER":209.948,"MEAN_ANOMALY":150.1482,"EPHEMERIS_TYPE":0,"CLASSIFICATION_TYPE":"U","NORAD_CAT_ID":40715,"ELEMENT_SET_NO":999,"REV_AT_EPOCH":58229,"BSTAR":-3.8901e-7,"MEAN_MOTION_DOT":-5.5e-7,"MEAN_MOTION_DDOT":0},{"OBJECT_NAME":"DMC3-FM2","OBJECT_ID":"2015-032B","EPOCH":"2026-04-26T20:09:30.669120","MEAN_MOTION":14.8568132,"ECCENTRICITY":0.0004948,"INCLINATION":97.6591,"RA_OF_ASC_NODE":345.5487,"ARG_OF_PERICENTER":218.1884,"MEAN_ANOMALY":141.8982,"EPHEMERIS_TYPE":0,"CLASSIFICATION_TYPE":"U","NORAD_CAT_ID":40716,"ELEMENT_SET_NO":999,"REV_AT_EPOCH":58228,"BSTAR":3.1323e-5,"MEAN_MOTION_DOT":2.2e-6,"MEAN_MOTION_DDOT":0},{"OBJECT_NAME":"DMC3-FM3","OBJECT_ID":"2015-032C","EPOCH":"2026-04-26T19:05:46.421088","MEAN_MOTION":14.85682678,"ECCENTRICITY":0.0004165,"INCLINATION":97.6643,"RA_OF_ASC_NODE":347.226,"ARG_OF_PERICENTER":215.1084,"MEAN_ANOMALY":144.9858,"EPHEMERIS_TYPE":0,"CLASSIFICATION_TYPE":"U","NORAD_CAT_ID":40717,"ELEMENT_SET_NO":999,"REV_AT_EPOCH":58228,"BSTAR":8.9548e-5,"MEAN_MOTION_DOT":7.25e-6,"MEAN_MOTION_DDOT":0}]
